FLOCK 4G-27             
1 62641U 25009AJ  26068.75406453  .00012587  00000+0  47455-3 0  9991
2 62641  97.3976 150.8631 0000756 322.4974  37.6212 15.27199247 63710
STARLINK-35366          
1 66512U 25263AD  26068.13635428  .00028456  00000+0  10386-2 0  9996
2 66512  43.0014 353.8669 0007220 234.1942 125.8239 15.27591667 18817
